     2              NAVIGATION DATA                         RINEX VERSION / TYPE
CCRINEXN V1.6.0 UX  CDDIS               16-JAN-20 03:53     PGM / RUN BY / DATE 
IGS BROADCAST EPHEMERIS FILE                                COMMENT             
    0.7451D-08 -0.1490D-07 -0.5960D-07  0.1192D-06          ION ALPHA           
    0.8806D+05 -0.4915D+05 -0.1966D+06  0.3277D+06          ION BETA            
    0.000000000000D+00 0.888178419700D-15   589824     2088 DELTA-UTC: A0,A1,T,W
    18                                                      LEAP SECONDS        
                                                            END OF HEADER       
18 20  1 16  8  0  0.0 0.113739632070D-03 0.238742359215D-11 0.000000000000D+00
    0.680000000000D+02 0.360625000000D+02 0.479519973932D-08 0.295237020970D+01
    0.182166695595D-05 0.156359527027D-01 0.519677996635D-05 0.515364825058D+04
    0.374400000000D+06 0.214204192162D-06-0.890272863095D+00-0.987201929092D-07
    0.957065246546D+00 0.274343750000D+03 0.145131394389D+01-0.811676666734D-08
    0.262868092368D-09 0.100000000000D+01 0.208800000000D+04 0.000000000000D+00
    0.200000000000D+01 0.630000000000D+02-0.558793544769D-08 0.680000000000D+02
    0.367218000000D+06 0.400000000000D+01 0.000000000000D+00 0.000000000000D+00
19 20  1 16  8  0  0.0-0.211820472032D-03 0.522959453519D-11 0.000000000000D+00
    0.850000000000D+02 0.194687500000D+02 0.394516433193D-08 0.177932272814D+01
    0.899657607079D-06 0.915362045634D-02 0.111144036055D-04 0.515367263603D+04
    0.374400000000D+06 0.819563865662D-07-0.178249085425D+01-0.201165676117D-06
    0.982106505387D+00 0.174593750000D+03 0.154962655777D+01-0.773746515362D-08
    0.750031241812D-10 0.100000000000D+01 0.208800000000D+04 0.000000000000D+00
    0.200000000000D+01 0.000000000000D+00-0.153668224812D-07 0.850000000000D+02
    0.367218000000D+06 0.400000000000D+01 0.000000000000D+00 0.000000000000D+00
20 20  1 16  8  0  0.0 0.527799129486D-03 0.000000000000D+00 0.000000000000D+00
    0.105000000000D+03-0.608437500000D+02 0.545844165172D-08 0.277623399960D+01
   -0.306777656078D-05 0.507324945647D-02 0.515580177307D-05 0.515362454414D+04
    0.374400000000D+06 0.130385160446D-07 0.814950919691D-01 0.145286321640D-06
    0.933092494293D+00 0.266093750000D+03 0.255910365623D+01-0.863893127474D-08
   -0.124648049234D-09 0.100000000000D+01 0.208800000000D+04 0.000000000000D+00
    0.200000000000D+01 0.000000000000D+00-0.838190317154D-08 0.105000000000D+03
    0.370560000000D+06 0.000000000000D+00 0.000000000000D+00 0.000000000000D+00
21 20  1 16  8  0  0.0-0.550197437406D-04 0.557065504836D-11 0.000000000000D+00
    0.790000000000D+02 0.197187500000D+02 0.499449375500D-08 0.140293826978D+01
    0.571832060814D-06 0.248168978142D-01 0.594742596149D-05 0.515357916451D+04
    0.374400000000D+06 0.150874257088D-06-0.900694356484D+00-0.659376382828D-06
    0.951433556147D+00 0.260500000000D+03-0.137747746652D+01-0.843285126210D-08
    0.326085011321D-09 0.100000000000D+01 0.208800000000D+04 0.000000000000D+00
    0.200000000000D+01 0.000000000000D+00-0.102445483208D-07 0.790000000000D+02
    0.373017000000D+06 0.400000000000D+01 0.000000000000D+00 0.000000000000D+00
22 20  1 16  8  0  0.0-0.782077666372D-03-0.125055521494D-11 0.000000000000D+00
    0.700000000000D+02-0.680000000000D+02 0.547808532710D-08-0.178814159770D+01
   -0.344030559063D-05 0.699196150526D-02 0.587664544582D-05 0.515359494591D+04
    0.374400000000D+06-0.121071934700D-06 0.129380017037D+00 0.162050127983D-06
    0.929791010031D+00 0.247125000000D+03-0.123877298812D+01-0.861964475709D-08
   -0.207508643568D-09 0.100000000000D+01 0.208800000000D+04 0.000000000000D+00
    0.200000000000D+01 0.000000000000D+00-0.181607902050D-07 0.700000000000D+02
    0.367218000000D+06 0.400000000000D+01 0.000000000000D+00 0.000000000000D+00
23 20  1 16  8  0  0.0-0.142776407301D-03 0.250111042988D-11 0.000000000000D+00
    0.780000000000D+02-0.126250000000D+02 0.468126642211D-08-0.231061086839D+01
   -0.884756445885D-06 0.133320569294D-01 0.113863497973D-04 0.515368869972D+04
    0.374400000000D+06 0.122934579849D-06 0.123485321762D+01-0.875443220139D-07
    0.943175007619D+00 0.146687500000D+03-0.220683739198D+01-0.786247036059D-08
    0.878608026122D-10 0.100000000000D+01 0.208800000000D+04 0.000000000000D+00
    0.200000000000D+01 0.000000000000D+00-0.200234353542D-07 0.780000000000D+02
    0.367218000000D+06 0.400000000000D+01 0.000000000000D+00 0.000000000000D+00
24 20  1 16  8  0  0.0-0.764383003116D-05-0.568434188608D-12 0.000000000000D+00
    0.890000000000D+02 0.561562500000D+02 0.512949937852D-08-0.280116187205D+01
    0.287964940071D-05 0.944839674048D-02 0.768527388573D-05 0.515366345406D+04
    0.374400000000D+06-0.372529029846D-08 0.224739167844D+01-0.167638063431D-06
    0.936929040844D+00 0.218437500000D+03 0.648007152830D+00-0.831891794489D-08
    0.287511976028D-09 0.100000000000D+01 0.208800000000D+04 0.000000000000D+00
    0.282842707634D+01 0.000000000000D+00 0.279396772385D-08 0.890000000000D+02
    0.367223000000D+06 0.400000000000D+01 0.000000000000D+00 0.000000000000D+00
25 20  1 16  8  0  0.0-0.159111805260D-04 0.795807864051D-12 0.000000000000D+00
    0.410000000000D+02-0.793750000000D+01 0.453876048616D-08 0.158601672984D+01
   -0.486150383949D-06 0.892099330667D-02 0.634230673313D-05 0.515360442162D+04
    0.374400000000D+06-0.158324837685D-06-0.292932650991D+01-0.260770320892D-07
    0.967618339656D+00 0.261250000000D+03 0.889383139726D+00-0.827105880851D-08
   -0.279654505875D-09 0.100000000000D+01 0.208800000000D+04 0.000000000000D+00
    0.200000000000D+01 0.000000000000D+00 0.558793544769D-08 0.410000000000D+02
    0.371202000000D+06 0.400000000000D+01 0.000000000000D+00 0.000000000000D+00
26 20  1 16  8  0  0.0 0.128349289298D-03 0.795807864051D-11 0.000000000000D+00
    0.360000000000D+02-0.756250000000D+01 0.492020494628D-08 0.968021721762D+00
   -0.348314642906D-06 0.454016879667D-02 0.594928860664D-05 0.515373237228D+04
    0.374400000000D+06 0.204890966415D-07-0.296215880377D+01 0.186264514923D-07
    0.948765892845D+00 0.256875000000D+03 0.168933221341D+00-0.843535136624D-08
   -0.304655547269D-09 0.100000000000D+01 0.208800000000D+04 0.000000000000D+00
    0.200000000000D+01 0.000000000000D+00 0.745058059692D-08 0.360000000000D+02
    0.367218000000D+06 0.400000000000D+01 0.000000000000D+00 0.000000000000D+00
27 20  1 16  8  0  0.0-0.182627234608D-03-0.112549969344D-10 0.000000000000D+00
    0.850000000000D+02 0.141562500000D+02 0.403195366134D-08-0.839179529001D+00
    0.754371285439D-06 0.766668387223D-02 0.963732600212D-05 0.515366094971D+04
    0.374400000000D+06 0.180676579475D-06-0.188593852272D+01 0.558793544769D-07
    0.978342111419D+00 0.203281250000D+03 0.497496123853D+00-0.790282918456D-08
    0.857178562071D-11 0.100000000000D+01 0.208800000000D+04 0.000000000000D+00
    0.200000000000D+01 0.000000000000D+00 0.186264514923D-08 0.850000000000D+02
    0.367218000000D+06 0.400000000000D+01 0.000000000000D+00 0.000000000000D+00
28 20  1 16  8  0  0.0 0.744984485209D-03-0.227373675443D-11 0.000000000000D+00
    0.900000000000D+02-0.177812500000D+02 0.433696636634D-08-0.131990623608D+00
   -0.104308128357D-05 0.188393762801D-01 0.746920704842D-05 0.515370556450D+04
    0.374400000000D+06-0.312924385071D-06-0.283941563205D+01-0.186264514923D-07
    0.979535497082D+00 0.249093750000D+03-0.142037572810D+01-0.836499129261D-08
   -0.283940398686D-09 0.100000000000D+01 0.208800000000D+04 0.000000000000D+00
    0.400000000000D+01 0.000000000000D+00-0.111758708954D-07 0.900000000000D+02
    0.367218000000D+06 0.400000000000D+01 0.000000000000D+00 0.000000000000D+00
29 20  1 16  8  0  0.0-0.875815749168D-05-0.954969436862D-11 0.000000000000D+00
    0.640000000000D+02 0.134687500000D+02 0.389944814195D-08-0.596918716586D+00
    0.530853867531D-06 0.103319552727D-02 0.994466245174D-05 0.515364236260D+04
    0.374400000000D+06-0.931322574616D-08-0.181681211930D+01 0.745058059692D-08
    0.985646875394D+00 0.203687500000D+03 0.196641421094D+01-0.779175312922D-08
    0.710743891050D-10 0.100000000000D+01 0.208800000000D+04 0.000000000000D+00
    0.200000000000D+01 0.000000000000D+00-0.977888703346D-08 0.640000000000D+02
    0.367225000000D+06 0.400000000000D+01 0.000000000000D+00 0.000000000000D+00
30 20  1 16  8  0  0.0-0.130425672978D-03-0.886757334229D-11 0.000000000000D+00
    0.510000000000D+02 0.626562500000D+02 0.527950562689D-08 0.253120534764D+01
    0.321492552757D-05 0.417777476832D-02 0.678934156895D-05 0.515369751740D+04
    0.374400000000D+06-0.335276126862D-07 0.234198248829D+01-0.149011611938D-07
    0.939114943278D+00 0.237312500000D+03-0.293127505827D+01-0.849606818106D-08
    0.216437586923D-09 0.100000000000D+01 0.208800000000D+04 0.000000000000D+00
    0.200000000000D+01 0.000000000000D+00 0.372529029846D-08 0.510000000000D+02
    0.367218000000D+06 0.400000000000D+01 0.000000000000D+00 0.000000000000D+00
31 20  1 16  8  0  0.0-0.168662518263D-04-0.250111042988D-11 0.000000000000D+00
    0.720000000000D+02 0.545312500000D+02 0.471983945740D-08 0.217050474770D+01
    0.289827585220D-05 0.966659327969D-02 0.733323395252D-05 0.515376553154D+04
    0.374400000000D+06-0.141561031342D-06 0.233232137875D+01 0.121071934700D-06
    0.958222142644D+00 0.240312500000D+03 0.104636820441D+00-0.819819863074D-08
    0.946467995620D-10 0.100000000000D+01 0.208800000000D+04 0.000000000000D+00
    0.200000000000D+01 0.000000000000D+00-0.135041773319D-07 0.720000000000D+02
    0.368172000000D+06 0.400000000000D+01 0.000000000000D+00 0.000000000000D+00
